IRIDIUM 113             
1 42803U 17039A   26095.19272156 -.00000174  00000+0 -69142-4 0  9991
2 42803  86.4017 352.6888 0001785  79.8774 280.2623 14.34218929460723
NORSAT 2                
1 42828U 17042D   26095.20801516  .00015069  00000+0  69217-3 0  9991
2 42828  97.4003 269.9018 0008769 310.9869  49.0607 15.20448439476643
TECHNOSAT               
1 42829U 17042E   26095.23328044  .00004925  00000+0  35461-3 0  9998
2 42829  97.4206 255.7255 0017181 349.3380  10.7480 15.04521665475735
FLYING LAPTOP           
1 42831U 17042G   26095.31726714  .00003341  00000+0  26723-3 0  9998
2 42831  97.4366 253.8228 0019706  12.7860 347.3860 15.00706187475521
WNISAT 1R               
1 42835U 17042L   26095.18964345  .00004927  00000+0  38583-3 0  9999
2 42835  97.4647 253.9939 0013401  49.0566 311.1817 15.01381982475556
LEMUR-2-GREENBERG       
1 42837U 17042N   26094.97583724  .00021127  00000+0  74928-3 0  9999
2 42837  97.3795 276.0731 0008065 261.5526  98.4800 15.29069820477197
LEMUR-2-FURIAUS         
1 42840U 17042R   26095.17472897  .00028569  00000+0  10554-2 0  9995
2 42840  97.3757 274.3997 0006822 322.3487  37.7274 15.27674191477052
CORVUS BC2              
1 42846U 17042X   26095.17680922  .00005228  00000+0  36356-3 0  9997
2 42846  97.3995 259.4197 0013233  10.0688 350.0802 15.05842703476077
CORVUS BC1              
1 42847U 17042Y   26094.98044666  .00004414  00000+0  30630-3 0  9990
2 42847  97.4029 259.9962 0011376 347.7669  12.3280 15.06026567476078
VRSS-2                  
1 42954U 17060A   26095.29277481  .00002090  00000+0  27515-3 0  9993
2 42954  97.6596 136.2785 0016619 343.7613  16.3065 14.81083209457665
MOHAMMED VI-A           
1 43005U 17070A   26095.25273102  .00001631  00000+0  23808-3 0  9995
2 43005  97.9390 168.5814 0001175  80.5407 279.5936 14.77095924453216
FENGYUN 3D              
1 43010U 17072A   26095.27600690  .00000372  00000+0  19784-3 0  9990
2 43010  99.0075  68.4050 0000420 256.2612 103.8516 14.19723968434648
CZ-4C R/B               
1 43012U 17072C   26095.19608318  .00000548  00000+0  11680-3 0  9990
2 43012  98.5712 200.8360 0122804  17.2816 343.2506 14.58724567445998
NOAA 20 (JPSS-1)        
1 43013U 17073A   26095.26027394  .00000111  00000+0  73659-4 0  9990
2 43013  98.7725  35.3884 0002044 101.7994 258.3412 14.19543353434120
MAKERSAT 0              
1 43016U 17073D   26094.62883973  .00030693  00000+0  89224-3 0  9997
2 43016  97.4725 336.7098 0114330 173.2922 186.9882 15.29050188455212
RADFXSAT (FOX-1B)       
1 43017U 17073E   26095.21432960  .00010483  00000+0  46996-3 0  9994
2 43017  97.4806 323.9554 0152904 219.8739 139.1180 15.11449824454366
